{
  "links" : {
    "next" : "https://api.nasa.gov/neo/rest/v1/feed?start_date=2013-04-23&end_date=2013-04-23&detailed=true&api_key=t0TVs3DtDT2H8Oy2Zy8m2eVrNsAVKAexjcZXUckd",
    "prev" : "https://api.nasa.gov/neo/rest/v1/feed?start_date=2013-04-21&end_date=2013-04-21&detailed=true&api_key=t0TVs3DtDT2H8Oy2Zy8m2eVrNsAVKAexjcZXUckd",
    "self" : "https://api.nasa.gov/neo/rest/v1/feed?start_date=2013-04-22&end_date=2013-04-22&detailed=true&api_key=t0TVs3DtDT2H8Oy2Zy8m2eVrNsAVKAexjcZXUckd"
  },
  "element_count" : 7,
  "near_earth_objects" : {
    "2013-04-22" : [ {
      "links" : {
        "self" : "https://api.nasa.gov/neo/rest/v1/neo/2345646?api_key=t0TVs3DtDT2H8Oy2Zy8m2eVrNsAVKAexjcZXUckd"
      },
      "neo_reference_id" : "2345646",
      "name" : "345646 (2006 TN)",
      "nasa_jpl_url" : "http://ssd.jpl.nasa.gov/sbdb.cgi?sstr=2345646",
      "absolute_magnitude_h" : 19.9,
      "estimated_diameter" : {
        "kilometers" : {
          "estimated_diameter_min" : 0.2783267681,
          "estimated_diameter_max" : 0.6223575734
        },
        "meters" : {
          "estimated_diameter_min" : 278.3267680719,
          "estimated_diameter_max" : 622.3575733667
        },
        "miles" : {
          "estimated_diameter_min" : 0.1729441822,
          "estimated_diameter_max" : 0.3867149477
        },
        "feet" : {
          "estimated_diameter_min" : 913.1455937611,
          "estimated_diameter_max" : 2041.8556210042
        }
      },
      "is_potentially_hazardous_asteroid" : false,
      "close_approach_data" : [ {
        "close_approach_date" : "2013-04-22",
        "epoch_date_close_approach" : 1366614000000,
        "relative_velocity" : {
          "kilometers_per_second" : "19.056276377",
          "kilometers_per_hour" : "68602.5949570675",
          "miles_per_hour" : "42626.984627629"
        },
        "miss_distance" : {
          "astronomical" : "0.4142090213",
          "lunar" : "161.1273040771",
          "kilometers" : "61964788",
          "miles" : "38503132"
        },
        "orbiting_body" : "Earth"
      } ],
      "orbital_data" : {
        "orbit_id" : "72",
        "orbit_determination_date" : "2017-04-06 09:23:14",
        "orbit_uncertainty" : "0",
        "minimum_orbit_intersection" : ".0991521",
        "jupiter_tisserand_invariant" : "4.314",
        "epoch_osculation" : "2458000.5",
        "eccentricity" : ".3452321616424249",
        "semi_major_axis" : "1.561672227019488",
        "inclination" : "17.27560032822182",
        "ascending_node_longitude" : "24.35449320344068",
        "orbital_period" : "712.8255487744993",
        "perihelion_distance" : "1.022532748308611",
        "perihelion_argument" : "131.6334495727249",
        "aphelion_distance" : "2.100811705730366",
        "perihelion_time" : "2457799.961266441305",
        "mean_anomaly" : "101.2785585551012",
        "mean_motion" : ".505032403256193",
        "equinox" : "J2000"
      }
    }, {
      "links" : {
        "self" : "https://api.nasa.gov/neo/rest/v1/neo/2345722?api_key=t0TVs3DtDT2H8Oy2Zy8m2eVrNsAVKAexjcZXUckd"
      },
      "neo_reference_id" : "2345722",
      "name" : "345722 (2007 BG29)",
      "nasa_jpl_url" : "http://ssd.jpl.nasa.gov/sbdb.cgi?sstr=2345722",
      "absolute_magnitude_h" : 18.2,
      "estimated_diameter" : {
        "kilometers" : {
          "estimated_diameter_min" : 0.6089126221,
          "estimated_diameter_max" : 1.3615700154
        },
        "meters" : {
          "estimated_diameter_min" : 608.9126221057,
          "estimated_diameter_max" : 1361.5700153859
        },
        "miles" : {
          "estimated_diameter_min" : 0.3783606449,
          "estimated_diameter_max" : 0.846040122
        },
        "feet" : {
          "estimated_diameter_min" : 1997.7448871092,
          "estimated_diameter_max" : 4467.0933692788
        }
      },
      "is_potentially_hazardous_asteroid" : false,
      "close_approach_data" : [ {
        "close_approach_date" : "2013-04-22",
        "epoch_date_close_approach" : 1366614000000,
        "relative_velocity" : {
          "kilometers_per_second" : "13.0040399382",
          "kilometers_per_hour" : "46814.5437775096",
          "miles_per_hour" : "29088.7369377531"
        },
        "miss_distance" : {
          "astronomical" : "0.28409296",
          "lunar" : "110.5121612549",
          "kilometers" : "42499704",
          "miles" : "26408090"
        },
        "orbiting_body" : "Earth"
      } ],
      "orbital_data" : {
        "orbit_id" : "50",
        "orbit_determination_date" : "2017-04-06 09:23:12",
        "orbit_uncertainty" : "1",
        "minimum_orbit_intersection" : ".0865455",
        "jupiter_tisserand_invariant" : "6.965",
        "epoch_osculation" : "2458000.5",
        "eccentricity" : ".3347521815210344",
        "semi_major_axis" : ".8325240301851713",
        "inclination" : "18.5083156822812",
        "ascending_node_longitude" : "60.98718946792383",
        "orbital_period" : "277.4556632516303",
        "perihelion_distance" : ".5538347949120017",
        "perihelion_argument" : "245.0828374038714",
        "aphelion_distance" : "1.111213265458341",
        "perihelion_time" : "2458117.091024519673",
        "mean_anomaly" : "208.722609100193",
        "mean_motion" : "1.297504602288505",
        "equinox" : "J2000"
      }
    }, {
      "links" : {
        "self" : "https://api.nasa.gov/neo/rest/v1/neo/2451157?api_key=t0TVs3DtDT2H8Oy2Zy8m2eVrNsAVKAexjcZXUckd"
      },
      "neo_reference_id" : "2451157",
      "name" : "451157 (2009 SQ104)",
      "nasa_jpl_url" : "http://ssd.jpl.nasa.gov/sbdb.cgi?sstr=2451157",
      "absolute_magnitude_h" : 21.0,
      "estimated_diameter" : {
        "kilometers" : {
          "estimated_diameter_min" : 0.1677084622,
          "estimated_diameter_max" : 0.3750075218
        },
        "meters" : {
          "estimated_diameter_min" : 167.7084621628,
          "estimated_diameter_max" : 375.0075217981
        },
        "miles" : {
          "estimated_diameter_min" : 0.1042091748,
          "estimated_diameter_max" : 0.2330187988
        },
        "feet" : {
          "estimated_diameter_min" : 550.2246310023,
          "estimated_diameter_max" : 1230.3396778159
        }
      },
      "is_potentially_hazardous_asteroid" : true,
      "close_approach_data" : [ {
        "close_approach_date" : "2013-04-22",
        "epoch_date_close_approach" : 1366614000000,
        "relative_velocity" : {
          "kilometers_per_second" : "8.1569150134",
          "kilometers_per_hour" : "29364.894048197",
          "miles_per_hour" : "18246.2031934477"
        },
        "miss_distance" : {
          "astronomical" : "0.0713943182",
          "lunar" : "27.7723884583",
          "kilometers" : "10680438",
          "miles" : "6636516.5"
        },
        "orbiting_body" : "Earth"
      } ],
      "orbital_data" : {
        "orbit_id" : "56",
        "orbit_determination_date" : "2017-04-06 09:20:08",
        "orbit_uncertainty" : "0",
        "minimum_orbit_intersection" : ".038564",
        "jupiter_tisserand_invariant" : "5.002",
        "epoch_osculation" : "2458000.5",
        "eccentricity" : ".2796356553881334",
        "semi_major_axis" : "1.284726356246116",
        "inclination" : "4.018333579045009",
        "ascending_node_longitude" : "56.55064068847044",
        "orbital_period" : "531.8808786931139",
        "perihelion_distance" : ".9254710596228247",
        "perihelion_argument" : "95.63323115695029",
        "aphelion_distance" : "1.643981652869407",
        "perihelion_time" : "2457952.375551306277",
        "mean_anomaly" : "32.5727098374152",
        "mean_motion" : ".6768432828127927",
        "equinox" : "J2000"
      }
    } ]
  }
}